H1 CPF 01  gfz 2022 10 31 13  8042 tandemx   
H2 1003001  6202 36605    2022 10 31 12 59 42 2022 11 05 00 00 42   120 1 1  0 0 0
H9
10 0 59883  79902.000000  0    -237658.581  -1448397.615   6719546.047
10 0 59883  80022.000000  0    -672963.413   -642985.456   6814481.779
10 0 59883  80142.000000  0   -1082268.421    181035.585   6789686.835
10 0 59883  80262.000000  0   -1458237.576   1008769.787   6645592.620
10 0 59883  80382.000000  0   -1794375.376   1825132.861   6384713.062
10 0 59883  80502.000000  0   -2085139.561   2615126.061   6011603.677
10 0 59883  80622.000000  0   -2326033.280   3364112.294   5532786.692
10 0 59883  80742.000000  0   -2513675.424   4058089.289   4956643.450
10 0 59883  80862.000000  0   -2645848.957   4683956.422   4293274.416
10 0 59883  80982.000000  0   -2721524.858   5229769.128   3554326.704
10 0 59883  81102.000000  0   -2740861.116   5684975.179   2752791.378
10 0 59883  81222.000000  0   -2705176.525   6040626.503   1902774.258
10 0 59883  81342.000000  0   -2616900.228   6289562.351   1019244.506
10 0 59883  81462.000000  0   -2479497.324   6426558.970    117765.279
10 0 59883  81582.000000  0   -2297372.871   6448441.815   -785788.242
10 0 59883  81702.000000  0   -2075756.900   6354157.498  -1675518.420
10 0 59883  81822.000000  0   -1820571.519   6144799.893  -2535796.637
10 0 59883  81942.000000  0   -1538284.455   5823590.332  -3351543.244
10 0 59883  82062.000000  0   -1235755.294   5395819.009  -4108493.304
10 0 59883  82182.000000  0    -920077.295   4868746.230  -4793445.395
10 0 59883  82302.000000  0    -598418.392   4251467.611  -5394486.588
10 0 59883  82422.000000  0    -277864.780   3554747.406  -5901192.677
10 0 59883  82542.000000  0      34729.820   2790821.778  -6304799.877
10 0 59883  82662.000000  0     332885.162   1973177.604  -6598344.380
10 0 59883  82782.000000  0     610623.299   1116313.654  -6776771.328
10 0 59883  82902.000000  0     862584.073    235485.385  -6837013.318
10 0 59883  83022.000000  0    1084125.012   -653562.182  -6778037.121
10 0 59883  83142.000000  0    1271404.068  -1534869.958  -6600858.089
10 0 59883  83262.000000  0    1421444.484  -2392542.994  -6308523.699
10 0 59883  83382.000000  0    1532182.006  -3211029.932  -5906068.209
10 0 59883  83502.000000  0    1602492.628  -3975402.484  -5400436.595
10 0 59883  83622.000000  0    1632200.195  -4671628.720  -4800374.457
10 0 59883  83742.000000  0    1622064.792  -5286832.571  -4116287.399
10 0 59883  83862.000000  0    1573750.941  -5809539.236  -3360071.952
10 0 59883  83982.000000  0    1489775.174  -6229899.507  -2544916.351
10 0 59883  84102.000000  0    1373435.472  -6539886.690  -1685074.897
10 0 59883  84222.000000  0    1228723.502  -6733461.647   -795619.357
10 0 59883  84342.000000  0    1060219.857  -6806701.385    107828.396
10 0 59883  84462.000000  0     872977.123  -6757885.843   1009376.977
10 0 59883  84582.000000  0     672391.983  -6587541.735   1893152.860
10 0 59883  84702.000000  0     464070.714  -6298441.022   2743589.961
10 0 59883  84822.000000  0     253690.516  -5895552.095   3545713.259
10 0 59883  84942.000000  0      46859.974  -5385946.669   4285407.881
10 0 59883  85062.000000  0    -151016.471  -4778667.516   4949670.458
10 0 59883  85182.000000  0    -334867.175  -4084557.919   5526838.514
10 0 59883  85302.000000  0    -500071.642  -3316058.391   6006793.506
10 0 59883  85422.000000  0    -642566.672  -2486973.618   6381133.852
10 0 59883  85542.000000  0    -758937.992  -1612218.190   6643313.985
10 0 59883  85662.000000  0    -846495.699   -707546.204   6788752.898
10 0 59883  85782.000000  0    -903332.721    210733.948   6814910.633
10 0 59883  85902.000000  0    -928364.809   1126053.968   6721329.984
10 0 59883  86022.000000  0    -921350.608   2021884.185   6509643.854
10 0 59883  86142.000000  0    -882892.352   2882031.514   6183548.477
10 0 59883  86262.000000  0    -814417.606   3690932.717   5748743.144
10 0 59883  86382.000000  0    -718141.892   4433938.723   5212835.712
10 0 59884    102.000000  0    -597012.719   5097584.435   4585215.938
10 0 59884    222.000000  0    -454636.488   5669841.413   3876896.016
10 0 59884    342.000000  0    -295188.501   6140342.932   3100320.387
10 0 59884    462.000000  0    -123310.539   6500583.956   2269151.241
10 0 59884    582.000000  0      56004.913   6744086.881   1398022.640
10 0 59884    702.000000  0     237540.734   6866524.020    502277.254
10 0 59884    822.000000  0     415986.738   6865799.595   -402310.792
10 0 59884    942.000000  0     586074.565   6742086.763  -1299823.053
10 0 59884   1062.000000  0     742710.351   6497817.374  -2174485.762
10 0 59884   1182.000000  0     881102.572   6137627.488  -3010953.676
10 0 59884   1302.000000  0     996883.176   5668260.005  -3794583.654
10 0 59884   1422.000000  0    1086218.598   5098426.931  -4511692.520
10 0 59884   1542.000000  0    1145907.898   4438635.036  -5149793.643
10 0 59884   1662.000000  0    1173465.923   3700980.444  -5697807.738
10 0 59884   1782.000000  0    1167189.362   2898918.094  -6146246.376
10 0 59884   1902.000000  0    1126205.032   2047009.595  -6487365.345
10 0 59884   2022.000000  0    1050499.575   1160657.228  -6715285.982
10 0 59884   2142.000000  0     940930.382    255827.786  -6826087.192
10 0 59884   2262.000000  0     799217.838   -651230.832  -6817865.545
10 0 59884   2382.000000  0     627918.375  -1544275.307  -6690763.119
10 0 59884   2502.000000  0     430379.629  -2407349.218  -6446964.072
10 0 59884   2622.000000  0     210678.099  -3225060.792  -6090663.305
10 0 59884   2742.000000  0     -26461.232  -3982855.074  -5628002.555
10 0 59884   2862.000000  0    -275760.201  -4667272.006  -5066974.032
10 0 59884   2982.000000  0    -531497.424  -5266188.732  -4417294.252
10 0 59884   3102.000000  0    -787631.537  -5769041.769  -3690246.846
10 0 59884   3222.000000  0   -1037934.953  -6167023.557  -2898495.393
10 0 59884   3342.000000  0   -1276135.321  -6453248.563  -2055869.189
10 0 59884   3462.000000  0   -1496061.841  -6622885.779  -1177124.266
10 0 59884   3582.000000  0   -1691792.434  -6673252.110   -277682.840
10 0 59884   3702.000000  0   -1857798.326  -6603863.434    626642.658
10 0 59884   3822.000000  0   -1989082.626  -6416441.769   1519935.105
10 0 59884   3942.000000  0   -2081308.915  -6114877.851   2386461.876
10 0 59884   4062.000000  0   -2130916.089  -5705149.503   3210961.133
10 0 59884   4182.000000  0   -2135216.200  -5195197.101   3978919.230
10 0 59884   4302.000000  0   -2092473.389  -4594763.629   4676828.285
10 0 59884   4422.000000  0   -2001962.350  -3915200.402   5292425.405
10 0 59884   4542.000000  0   -1864005.222  -3169241.764   5814910.681
10 0 59884   4662.000000  0   -1679984.926  -2370757.932   6235131.439
10 0 59884   4782.000000  0   -1452335.321  -1534491.557   6545736.367
10 0 59884   4902.000000  0   -1184509.879   -675781.986   6741298.684
10 0 59884   5022.000000  0    -880929.654    189718.690   6818404.530
10 0 59884   5142.000000  0    -546910.632   1046330.042   6775708.592
10 0 59884   5262.000000  0    -188570.484   1878627.011   6613956.829
10 0 59884   5382.000000  0     187283.441   2671717.511   6335974.152
10 0 59884   5502.000000  0     573282.622   3411508.805   5946617.819
10 0 59884   5622.000000  0     961640.032   4084959.982   5452697.940
10 0 59884   5742.000000  0    1344305.307   4680316.059   4862864.139
10 0 59884   5862.000000  0    1713129.730   5187319.855   4187459.614
10 0 59884   5982.000000  0    2060037.645   5597395.668   3438344.466
10 0 59884   6102.000000  0    2377202.115   5903804.083   2628691.489
10 0 59884   6222.000000  0    2657217.961   6101762.736   1772751.808
10 0 59884   6342.000000  0    2893270.622   6188526.593    885598.779
10 0 59884   6462.000000  0    3079293.507   6163426.653    -17144.647
10 0 59884   6582.000000  0    3210112.012   6027867.660   -919588.681
10 0 59884   6702.000000  0    3281570.614   5785283.708  -1805864.806
10 0 59884   6822.000000  0    3290639.013   5441053.820  -2660412.170
10 0 59884   6942.000000  0    3235495.321   5002379.076  -3468257.292
10 0 59884   7062.000000  0    3115583.032   4478123.998  -4215279.570
10 0 59884   7182.000000  0    2931641.731   3878628.946  -4888456.547
10 0 59884   7302.000000  0    2685711.087   3215498.274  -5476086.328
10 0 59884   7422.000000  0    2381109.645   2501368.853  -5967983.055
10 0 59884   7542.000000  0    2022388.031   1749664.548  -6355643.232
10 0 59884   7662.000000  0    1615258.501    974342.361  -6632380.536
10 0 59884   7782.000000  0    1166503.749    189635.513  -6793429.992
10 0 59884   7902.000000  0     683863.931   -590203.411  -6836022.466
10 0 59884   8022.000000  0     175904.233  -1351156.243  -6759425.931
10 0 59884   8142.000000  0    -348133.140  -2079683.900  -6564955.388
10 0 59884   8262.000000  0    -878492.357  -2762960.906  -6255954.262
10 0 59884   8382.000000  0   -1405081.303  -3389098.532  -5837743.412
10 0 59884   8502.000000  0   -1917658.605  -3947350.141  -5317538.471
10 0 59884   8622.000000  0   -2406029.164  -4428298.133  -4704337.736
10 0 59884   8742.000000  0   -2860245.665  -4824019.308  -4008778.038
10 0 59884   8862.000000  0   -3270810.889  -5128222.957  -3242959.492
10 0 59884   8982.000000  0   -3628876.565  -5336359.586  -2420242.641
10 0 59884   9102.000000  0   -3926435.275  -5445697.622  -1555019.662
10 0 59884   9222.000000  0   -4156500.066  -5455365.149   -662462.641
10 0 59884   9342.000000  0   -4313266.417  -5366354.862    241746.415
10 0 59884   9462.000000  0   -4392252.326  -5181491.444   1141697.974
10 0 59884   9582.000000  0   -4390412.797  -4905361.313   2021544.179
10 0 59884   9702.000000  0   -4306224.701  -4544205.779   2865787.308
10 0 59884   9822.000000  0   -4139740.644  -4105781.641   3659560.434
10 0 59884   9942.000000  0   -3892610.805  -3599192.960   4388895.483
99
